     2.11           G: GLONASS NAV DATA                     RINEX VERSION / TYPE
teqc  2016Apr1      IGN                 20230717 10:12:02UTCPGM / RUN BY / DATE
    18                                                      LEAP SECONDS
Linux 2.4.21-27.ELsmp|Opteron|gcc|Linux x86_64|=+           COMMENT
teqc  2016Apr1      IGN                 20230717 10:12:02UTCCOMMENT
  2023     7    17    1.396983861923D-09                    CORR TO SYSTEM TIME
                                                            END OF HEADER
20 23  7 17  8 45  0.0-9.673275053501D-05-0.000000000000D+00 3.060000000000D+04
    1.203674707031D+04-8.157014846802D-01 0.000000000000D+00 0.000000000000D+00
   -1.334993994141D+04 2.349227905273D+00 2.793967723846D-09 2.000000000000D+00
    1.808422802734D+04 2.280357360840D+00-9.313225746155D-10 0.000000000000D+00
19 23  7 17  8 45  0.0-2.401238307357D-04-9.094947017729D-13 3.060000000000D+04
    8.121259277344D+03-7.667999267578D-01 2.793967723846D-09 0.000000000000D+00
    8.453452148438D+03 3.012958526611D+00 3.725290298462D-09 3.000000000000D+00
    2.264703417969D+04-8.502531051636D-01 0.000000000000D+00 0.000000000000D+00
 9 23  7 17  8 45  0.0 1.316368579865D-04 1.818989403546D-12 3.060000000000D+04
    2.302111621094D+04 5.136146545410D-01-9.313225746155D-10 0.000000000000D+00
   -1.004429101562D+04-2.762279510498D-01 2.793967723846D-09-2.000000000000D+00
    4.218629882812D+03-3.486556053162D+00 9.313225746155D-10 0.000000000000D+00
18 23  7 17  8 45  0.0 9.198207408190D-05 1.818989403546D-12 3.060000000000D+04
    1.477242187500D+03-2.792692184448D-01 3.725290298462D-09 0.000000000000D+00
    2.109419189453D+04 1.947918891907D+00 1.862645149231D-09-3.000000000000D+00
    1.430806884766D+04-2.840536117554D+00 9.313225746155D-10 0.000000000000D+00
 5 23  7 17  8 45  0.0 1.159003004432D-04 9.094947017729D-13 3.063000000000D+04
    1.994287988281D+04 1.021126747131D+00 9.313225746155D-10 0.000000000000D+00
    1.312860937500D+04 7.161865234375D-01 1.862645149231D-09 1.000000000000D+00
   -8.998733398438D+03 3.301915168762D+00 3.725290298462D-09 0.000000000000D+00
11 23  7 17  8 45  0.0-1.066215336323D-04-1.000444171950D-11 3.084000000000D+04
   -5.943154296875D+03 2.986606597900D+00 0.000000000000D+00 0.000000000000D+00
   -9.516354980469D+03-9.518098831177D-01 9.313225746155D-10 0.000000000000D+00
    2.292354833984D+04 3.776607513428D-01-2.793967723846D-09 0.000000000000D+00
21 23  7 17  8 45  0.0-2.332776784897D-05-2.728484105319D-12 3.060000000000D+04
    6.152551269531D+03-2.427358627319D-01-2.793967723846D-09 0.000000000000D+00
   -2.476974560547D+04-2.390861511230D-03 0.000000000000D+00 4.000000000000D+00
    3.924013671875D+02 3.600318908691D+00-1.862645149231D-09 0.000000000000D+00
 2 23  7 17  8 45  0.0-2.260226756334D-05 0.000000000000D+00 3.060000000000D+04
   -1.268197070312D+04-2.226691246033D+00 1.862645149231D-09 0.000000000000D+00
    2.207716796875D+03-2.026968002319D+00 0.000000000000D+00-4.000000000000D+00
    2.205283300781D+04-1.085460662842D+00-1.862645149231D-09 0.000000000000D+00
 1 23  7 17  8 45  0.0 6.154738366604D-05 0.000000000000D+00 3.060000000000D+04
   -2.041731542969D+04-1.114093780518D+00-9.313225746155D-10 0.000000000000D+00
   -1.165710839844D+04-7.879867553711D-01-1.862645149231D-09 1.000000000000D+00
    9.914682128906D+03-3.219301223755D+00-2.793967723846D-09 0.000000000000D+00
15 23  7 17  8 45  0.0 8.777529001236D-05-9.094947017729D-13 3.060000000000D+04
    7.222924316406D+03-2.972110748291D+00-0.000000000000D+00 0.000000000000D+00
    9.160645996094D+03 9.113779067993D-01-9.313225746155D-10 0.000000000000D+00
   -2.265764941406D+04-5.791378021240D-01 1.862645149231D-09 0.000000000000D+00
17 23  7 17  8 45  0.0 5.513429641724D-07 2.728484105319D-12 3.060000000000D+04
   -6.521674804688D+03 2.641601562500D-01 2.793967723846D-09 0.000000000000D+00
    2.457897363281D+04-1.740436553955D-01-0.000000000000D+00 4.000000000000D+00
   -1.670641113281D+03-3.591553688049D+00 1.862645149231D-09 0.000000000000D+00
14 23  7 17  8 45  0.0 2.496223896742D-05-0.000000000000D+00 3.060000000000D+04
   -1.120531396484D+04-2.419345855713D+00-0.000000000000D+00 0.000000000000D+00
    1.318549462891D+04 8.620576858521D-01-2.793967723846D-09-7.000000000000D+00
   -1.873286718750D+04 2.049741744995D+00 9.313225746155D-10 0.000000000000D+00
 6 23  7 17  8 45  0.0-1.198137179017D-04-9.094947017729D-13 3.213000000000D+04
    1.194012792969D+04 2.317392349243D+00-1.862645149231D-09 0.000000000000D+00
   -3.666475097656D+03 1.973279953003D+00-0.000000000000D+00-4.000000000000D+00
   -2.225482324219D+04 9.169750213623D-01 1.862645149231D-09 0.000000000000D+00
22 23  7 17  8 45  0.0 9.654834866524D-05 6.366462912410D-12 3.060000000000D+04
   -1.553419921875D+03 4.236974716187D-01-3.725290298462D-09 0.000000000000D+00
   -2.060586279297D+04-2.009159088135D+00-1.862645149231D-09-3.000000000000D+00
   -1.492699804688D+04 2.725997924805D+00-9.313225746155D-10 0.000000000000D+00
 8 23  7 17  8 45  0.0-7.166247814894D-05-0.000000000000D+00 3.060000000000D+04
   -1.511942138672D+04 6.679449081421D-01-2.793967723846D-09 0.000000000000D+00
   -1.900500976562D+04 8.441972732544D-01-2.793967723846D-09 6.000000000000D+00
   -7.697329101562D+03-3.373644828796D+00-1.862645149231D-09 0.000000000000D+00
 7 23  7 17  8 45  0.0 6.036367267370D-05 0.000000000000D+00 3.060000000000D+04
   -2.473591796875D+03 1.980395317078D+00-3.725290298462D-09 0.000000000000D+00
   -1.529089697266D+04 1.951882362366D+00-2.793967723846D-09 5.000000000000D+00
   -2.021236962891D+04-1.719988822937D+00-0.000000000000D+00 0.000000000000D+00
12 23  7 17  8 45  0.0 2.917461097240D-05 9.094947017729D-13 3.060000000000D+04
   -2.182606250000D+04 1.757845878601D+00 0.000000000000D+00 0.000000000000D+00
    2.499218750000D+02-4.267787933350D-01-1.862645149231D-09-1.000000000000D+00
    1.322094824219D+04 2.917683601379D+00-1.862645149231D-09 0.000000000000D+00
25 23  7 17  8 45  0.0 4.692189395428D-05-9.094947017729D-13 3.186000000000D+04
    7.690069335938D+03-2.324981689453D-01-2.793967723846D-09 4.000000000000D+00
   -2.427276855469D+04 1.826114654541D-01 0.000000000000D+00-5.000000000000D+00
    1.745770507812D+03 3.562914848328D+00-9.313225746155D-10 0.000000000000D+00
13 23  7 17  8 45  0.0-3.719143569469D-05-0.000000000000D+00 3.153000000000D+04
   -2.379393750000D+04-2.392015457153D-01 0.000000000000D+00 0.000000000000D+00
    8.931604003906D+03 2.327051162720D-01-2.793967723846D-09-2.000000000000D+00
   -2.198382324219D+03 3.546125411987D+00-9.313225746155D-10 0.000000000000D+00
24 23  7 17  8 45  0.0-1.687183976173D-05-1.818989403546D-12 3.060000000000D+04
   -1.185058251953D+04 6.702499389648D-01 0.000000000000D+00 0.000000000000D+00
    1.426267675781D+04-2.306765556335D+00-2.793967723846D-09 2.000000000000D+00
   -1.749455419922D+04-2.334998130798D+00 9.313225746155D-10 0.000000000000D+00
23 23  7 17  8 45  0.0-8.966028690338D-05-9.094947017729D-13 3.060000000000D+04
   -9.799889648438D+03 7.645664215088D-01-1.862645149231D-09 0.000000000000D+00
   -3.728486816406D+03-3.094071388245D+00-2.793967723846D-09 3.000000000000D+00
   -2.326612207031D+04 1.736173629761D-01-0.000000000000D+00 0.000000000000D+00
